STARLINK-32580          
1 62075U 24217U   26068.52520325  .00031384  00000+0  10673-2 0  9999
2 62075  53.1580 182.0554 0000674  76.1585 283.9491 15.30199409 73577
HAWK-11B                
1 62379U 24247C   26068.44730104  .00009093  00000+0  32842-3 0  9993
2 62379  45.0161 115.7610 0004690 333.0326  27.0314 15.28847070 67738
