[{"OBJECT_NAME":"STARLINK-32580","OBJECT_ID":"2024-217U","EPOCH":"2026-03-09T12:36:17.560800","MEAN_MOTION":15.30199409,"ECCENTRICITY":6.749e-5,"INCLINATION":53.158,"RA_OF_ASC_NODE":182.0554,"ARG_OF_PERICENTER":76.1585,"MEAN_ANOMALY":283.9491,"EPHEMERIS_TYPE":0,"CLASSIFICATION_TYPE":"U","NORAD_CAT_ID":62075,"ELEMENT_SET_NO":999,"REV_AT_EPOCH":7357,"BSTAR":0.0010673044,"MEAN_MOTION_DOT":0.00031384,"MEAN_MOTION_DDOT":0},{"OBJECT_NAME":"HAWK-11B","OBJECT_ID":"2024-247C","EPOCH":"2026-03-09T10:44:06.809856","MEAN_MOTION":15.2884707,"ECCENTRICITY":0.00046902,"INCLINATION":45.0161,"RA_OF_ASC_NODE":115.761,"ARG_OF_PERICENTER":333.0326,"MEAN_ANOMALY":27.0314,"EPHEMERIS_TYPE":0,"CLASSIFICATION_TYPE":"U","NORAD_CAT_ID":62379,"ELEMENT_SET_NO":999,"REV_AT_EPOCH":6773,"BSTAR":0.00032841927,"MEAN_MOTION_DOT":9.093e-5,"MEAN_MOTION_DDOT":0}]
